OBJECT_NAME,OBJECT_ID,EPOCH,MEAN_MOTION,ECCENTRICITY,INCLINATION,RA_OF_ASC_NODE,ARG_OF_PERICENTER,MEAN_ANOMALY,EPHEMERIS_TYPE,CLASSIFICATION_TYPE,NORAD_CAT_ID,ELEMENT_SET_NO,REV_AT_EPOCH,BSTAR,MEAN_MOTION_DOT,MEAN_MOTION_DDOT
ONEWEB-0674,2023-029AP,2026-06-18T15:02:36.227616,13.14504421,.0001674,87.8954,289.4305,88.8178,271.3144,0,U,55833,999,15960,.44519E-3,.178E-5,0
ONEWEB-0675,2023-029AQ,2026-06-18T15:32:46.926240,13.19724750,.0002144,87.9173,304.6860,103.9359,256.2012,0,U,55834,999,15911,.41528E-4,.3E-6,0
ONEWEB-0720,2023-029AR,2026-06-18T15:21:24.039648,13.19724945,.0001641,87.9171,304.6877,105.6575,254.4739,0,U,55835,999,15903,.25055E-3,.113E-5,0
ONEWEB-0537,2023-043A,2026-06-18T09:51:11.587392,13.16595045,.0002288,87.9099,228.5287,98.2045,261.9345,0,U,56046,999,15912,.79884E-4,.43E-6,0
ONEWEB-0538,2023-043B,2026-06-18T15:10:22.829088,13.16594716,.0002159,87.9098,228.4870,104.2989,255.8381,0,U,56047,999,15916,-.29809E-4,.1E-7,0
ONEWEB-0546,2023-043C,2026-06-18T14:52:08.556672,13.16594666,.0002731,87.9097,228.4894,94.4443,265.7000,0,U,56048,999,15915,.18751E-3,.85E-6,0
ONEWEB-0547,2023-043D,2026-06-18T16:28:21.440928,13.21825923,.0001977,87.9258,243.6760,104.2328,255.9026,0,U,56049,999,15842,.10272E-3,.55E-6,0
ONEWEB-0548,2023-043E,2026-06-18T09:59:08.843712,13.16594234,.0001985,87.9095,228.5262,84.8061,275.3296,0,U,56050,999,15912,-.66556E-3,-.242E-5,0
ONEWEB-0549,2023-043F,2026-06-18T16:19:53.092704,13.21826291,.0002144,87.9251,243.6834,109.4828,250.6538,0,U,56051,999,15842,.10522E-3,.56E-6,0
ONEWEB-0550,2023-043G,2026-06-18T14:11:31.125408,13.21825544,.0001886,87.9254,243.6988,93.8121,266.3229,0,U,56052,999,15841,-.35134E-4,-.1E-7,0
ONEWEB-0551,2023-043H,2026-06-18T16:13:58.774944,13.15549282,.0001982,87.9001,258.9297,111.2878,248.8464,0,U,56053,999,15659,-.11115E-3,-.29E-6,0
ONEWEB-0552,2023-043J,2026-06-18T14:04:12.146016,13.21829121,.000183,87.9255,243.7053,101.0823,259.0517,0,U,56054,999,15841,.26969E-3,.124E-5,0
ONEWEB-0553,2023-043K,2026-06-18T15:01:15.504960,13.16594461,.0002411,87.9096,228.4887,92.6728,267.4679,0,U,56055,999,15916,-.1448E-3,-.43E-6,0
ONEWEB-0554,2023-043L,2026-06-18T16:32:28.199328,13.16595278,.0001913,87.9095,228.4850,81.9410,278.1938,0,U,56056,999,15915,.2393E-3,.104E-5,0
ONEWEB-0555,2023-043M,2026-06-18T10:09:23.742144,13.16596544,.0002657,87.9100,228.5263,93.4708,266.6727,0,U,56057,999,15912,-.8473E-4,-.2E-6,0
ONEWEB-0557,2023-043N,2026-06-18T14:08:48.956064,13.16594099,.0002688,87.9096,228.5032,70.2776,289.8645,0,U,56058,999,15914,-.13683E-3,-.39E-6,0
ONEWEB-0558,2023-043P,2026-06-18T06:38:30.392160,13.21827814,.0002191,87.9254,243.7617,107.1065,253.0309,0,U,56059,999,15838,.30768E-4,.26E-6,0
ONEWEB-0559,2023-043Q,2026-06-18T11:48:33.566688,13.21825824,.0001929,87.9257,243.7138,105.1047,255.0300,0,U,56060,999,15842,.28231E-4,.25E-6,0
ONEWEB-0566,2023-043R,2026-06-18T11:38:53.570400,13.21827212,.0001944,87.9255,243.7133,108.4129,251.7217,0,U,56061,999,15840,.31999E-3,.145E-5,0
ONEWEB-0568,2023-043S,2026-06-18T16:23:20.444064,13.16594408,.0002344,87.9094,228.4744,94.9947,265.1452,0,U,56062,999,15917,-.10936E-3,-.29E-6,0
ONEWEB-0574,2023-043T,2026-06-18T15:07:12.412128,13.21824373,.0002052,87.9265,243.6877,91.0550,269.0819,0,U,56063,999,15846,.16657E-3,.82E-6,0
ONEWEB-0575,2023-043U,2026-06-18T16:14:13.415424,13.16594000,.0002236,87.9094,228.4720,86.7933,273.3454,0,U,56064,999,15916,-.80049E-4,-.18E-6,0
ONEWEB-0576,2023-043V,2026-06-18T10:18:32.802048,13.16593979,.0002151,87.9099,228.5288,91.3083,268.8294,0,U,56065,999,15912,-.39741E-4,-.2E-7,0
ONEWEB-0577,2023-043W,2026-06-18T14:06:32.872608,13.16593570,.0002155,87.9098,228.4951,76.1951,283.9419,0,U,56066,999,15917,-.36132E-4,-.1E-7,0
ONEWEB-0578,2023-043X,2026-06-18T16:36:50.323968,13.21825056,.0002336,87.9257,243.6732,96.5510,263.5890,0,U,56067,999,15843,.74861E-5,.16E-6,0
ONEWEB-0579,2023-043Y,2026-06-18T16:24:44.322048,13.21826857,.0001796,87.9264,243.6719,102.5983,257.5352,0,U,56068,999,15844,-.80887E-4,-.2E-6,0
ONEWEB-0581,2023-043Z,2026-06-18T16:05:05.025120,13.16592562,.0002008,87.9096,228.4900,81.1966,278.9393,0,U,56069,999,15915,-.30603E-4,.1E-7,0
ONEWEB-0609,2023-043AA,2026-06-18T15:02:06.798048,13.15549296,.0002013,87.9002,258.9248,102.2792,257.8564,0,U,56070,999,15662,.31404E-3,.131E-5,0
ONEWEB-0613,2023-043AB,2026-06-18T14:58:40.632960,13.15547788,.0001809,87.9003,258.9377,113.5593,246.5728,0,U,56071,999,15662,.87756E-3,.343E-5,0
ONEWEB-0630,2023-043AC,2026-06-18T16:41:21.783264,13.15547234,.0001783,87.9006,258.8949,105.7623,254.3704,0,U,56072,999,15662,.30106E-3,.126E-5,0
