ONEWEB-0674             
1 55833U 23029AP  26169.62680819  .00000178  00000+0  44519-3 0  9995
2 55833  87.8954 289.4305 0001674  88.8178 271.3144 13.14504421159604
ONEWEB-0675             
1 55834U 23029AQ  26169.64776535  .00000030  00000+0  41528-4 0  9994
2 55834  87.9173 304.6860 0002144 103.9359 256.2012 13.19724750159114
ONEWEB-0720             
1 55835U 23029AR  26169.63986157  .00000113  00000+0  25055-3 0  9995
2 55835  87.9171 304.6877 0001641 105.6575 254.4739 13.19724945159034
ONEWEB-0537             
1 56046U 23043A   26169.41055078  .00000043  00000+0  79884-4 0  9993
2 56046  87.9099 228.5287 0002288  98.2045 261.9345 13.16595045159124
ONEWEB-0538             
1 56047U 23043B   26169.63220867  .00000001  00000+0 -29809-4 0  9995
2 56047  87.9098 228.4870 0002159 104.2989 255.8381 13.16594716159163
ONEWEB-0546             
1 56048U 23043C   26169.61954348  .00000085  00000+0  18751-3 0  9996
2 56048  87.9097 228.4894 0002731  94.4443 265.7000 13.16594666159151
ONEWEB-0547             
1 56049U 23043D   26169.68635927  .00000055  00000+0  10272-3 0  9990
2 56049  87.9258 243.6760 0001977 104.2328 255.9026 13.21825923158422
ONEWEB-0548             
1 56050U 23043E   26169.41607458 -.00000242  00000+0 -66556-3 0  9997
2 56050  87.9095 228.5262 0001985  84.8061 275.3296 13.16594234159123
ONEWEB-0549             
1 56051U 23043F   26169.68047561  .00000056  00000+0  10522-3 0  9993
2 56051  87.9251 243.6834 0002144 109.4828 250.6538 13.21826291158428
ONEWEB-0550             
1 56052U 23043G   26169.59133247 -.00000001  00000+0 -35134-4 0  9990
2 56052  87.9254 243.6988 0001886  93.8121 266.3229 13.21825544158416
ONEWEB-0551             
1 56053U 23043H   26169.67637471 -.00000029  00000+0 -11115-3 0  9990
2 56053  87.9001 258.9297 0001982 111.2878 248.8464 13.15549282156598
ONEWEB-0552             
1 56054U 23043J   26169.58625169  .00000124  00000+0  26969-3 0  9999
2 56054  87.9255 243.7053 0001830 101.0823 259.0517 13.21829121158417
ONEWEB-0553             
1 56055U 23043K   26169.62587390 -.00000043  00000+0 -14480-3 0  9995
2 56055  87.9096 228.4887 0002411  92.6728 267.4679 13.16594461159166
ONEWEB-0554             
1 56056U 23043L   26169.68921527  .00000104  00000+0  23930-3 0  9992
2 56056  87.9095 228.4850 0001913  81.9410 278.1938 13.16595278159154
ONEWEB-0555             
1 56057U 23043M   26169.42319146 -.00000020  00000+0 -84730-4 0  9998
2 56057  87.9100 228.5263 0002657  93.4708 266.6727 13.16596544159127
ONEWEB-0557             
1 56058U 23043N   26169.58945551 -.00000039  00000+0 -13683-3 0  9999
2 56058  87.9096 228.5032 0002688  70.2776 289.8645 13.16594099159149
ONEWEB-0558             
1 56059U 23043P   26169.27674065  .00000026  00000+0  30768-4 0  9993
2 56059  87.9254 243.7617 0002191 107.1065 253.0309 13.21827814158389
ONEWEB-0559             
1 56060U 23043Q   26169.49205517  .00000025  00000+0  28231-4 0  9992
2 56060  87.9257 243.7138 0001929 105.1047 255.0300 13.21825824158425
ONEWEB-0566             
1 56061U 23043R   26169.48534225  .00000145  00000+0  31999-3 0  9990
2 56061  87.9255 243.7133 0001944 108.4129 251.7217 13.21827212158404
ONEWEB-0568             
1 56062U 23043S   26169.68287551 -.00000029  00000+0 -10936-3 0  9991
2 56062  87.9094 228.4744 0002344  94.9947 265.1452 13.16594408159173
ONEWEB-0574             
1 56063U 23043T   26169.63000477  .00000082  00000+0  16657-3 0  9990
2 56063  87.9265 243.6877 0002052  91.0550 269.0819 13.21824373158468
ONEWEB-0575             
1 56064U 23043U   26169.67654416 -.00000018  00000+0 -80049-4 0  9991
2 56064  87.9094 228.4720 0002236  86.7933 273.3454 13.16594000159163
ONEWEB-0576             
1 56065U 23043V   26169.42954632 -.00000002  00000+0 -39741-4 0  9994
2 56065  87.9099 228.5288 0002151  91.3083 268.8294 13.16593979159124
ONEWEB-0577             
1 56066U 23043W   26169.58788047 -.00000001  00000+0 -36132-4 0  9997
2 56066  87.9098 228.4951 0002155  76.1951 283.9419 13.16593570159178
ONEWEB-0578             
1 56067U 23043X   26169.69224912  .00000016  00000+0  74861-5 0  9992
2 56067  87.9257 243.6732 0002336  96.5510 263.5890 13.21825056158438
ONEWEB-0579             
1 56068U 23043Y   26169.68384632 -.00000020  00000+0 -80887-4 0  9999
2 56068  87.9264 243.6719 0001796 102.5983 257.5352 13.21826857158440
ONEWEB-0581             
1 56069U 23043Z   26169.67019705  .00000001  00000+0 -30603-4 0  9994
2 56069  87.9096 228.4900 0002008  81.1966 278.9393 13.16592562159155
ONEWEB-0609             
1 56070U 23043AA  26169.62646757  .00000131  00000+0  31404-3 0  9996
2 56070  87.9002 258.9248 0002013 102.2792 257.8564 13.15549296156625
ONEWEB-0613             
1 56071U 23043AB  26169.62408140  .00000343  00000+0  87756-3 0  9995
2 56071  87.9003 258.9377 0001809 113.5593 246.5728 13.15547788156627
ONEWEB-0630             
1 56072U 23043AC  26169.69539101  .00000126  00000+0  30106-3 0  9991
2 56072  87.9006 258.8949 0001783 105.7623 254.3704 13.15547234156620
